[{"OBJECT_NAME":"STARLINK-4364","OBJECT_ID":"2022-084AT","EPOCH":"2026-03-09T17:33:44.095968","MEAN_MOTION":15.05648984,"ECCENTRICITY":6.522e-5,"INCLINATION":97.6041,"RA_OF_ASC_NODE":131.2925,"ARG_OF_PERICENTER":81.7209,"MEAN_ANOMALY":278.4091,"EPHEMERIS_TYPE":0,"CLASSIFICATION_TYPE":"U","NORAD_CAT_ID":53230,"ELEMENT_SET_NO":999,"REV_AT_EPOCH":19939,"BSTAR":3.3856851e-5,"MEAN_MOTION_DOT":4.28e-6,"MEAN_MOTION_DDOT":0},{"OBJECT_NAME":"NOAA 17 DEB","OBJECT_ID":"2002-032DT","EPOCH":"2026-03-08T22:47:54.624192","MEAN_MOTION":15.08678856,"ECCENTRICITY":0.0018728,"INCLINATION":98.77,"RA_OF_ASC_NODE":121.3607,"ARG_OF_PERICENTER":298.7191,"MEAN_ANOMALY":61.2152,"EPHEMERIS_TYPE":0,"CLASSIFICATION_TYPE":"U","NORAD_CAT_ID":49489,"ELEMENT_SET_NO":999,"REV_AT_EPOCH":24229,"BSTAR":0.0068247859,"MEAN_MOTION_DOT":0.00108865,"MEAN_MOTION_DDOT":0}]
